0 SL-12 R/B(2)
1 19020U 88028D   13281.74107221 -.00000055  00000-0  10000-3 0  1433
2 19020 015.6815 012.8133 0020930 018.8902 341.1959 00.97783975 91153
0 SL-12 R/B(2)
1 19020U 88028D   13283.78632300 -.00000047  00000-0  10000-3 0  1442
2 19020 015.6831 012.7918 0020803 018.7786 341.3048 00.97783825 91176
0 SL-12 R/B(2)
1 19020U 88028D   13287.87677390 -.00000117  00000-0  10000-3 0  1453
2 19020 015.6860 012.7493 0020921 018.7896 341.2787 00.97785082 91210
0 SL-12 R/B(2)
1 19020U 88028D   13290.94457586 -.00000180  00000-0  10000-3 0  1469
2 19020 015.6883 012.7170 0020830 018.9923 341.0716 00.97786228 91245
0 SL-12 R/B(2)
1 19020U 88028D   13292.98977595 -.00000193  00000-0  10000-3 0  1477
2 19020 015.6901 012.6954 0020710 018.8019 341.2583 00.97786433 91261
0 SL-12 R/B(2)
1 19020U 88028D   13295.03499126 -.00000177  00000-0  10000-3 0  1488
2 19020 015.6916 012.6739 0020724 018.8650 341.2004 00.97786168 91289
